[{"OBJECT_NAME":"LING QIAO","OBJECT_ID":"2014-051A","EPOCH":"2026-03-09T23:57:46.118880","MEAN_MOTION":14.30251785,"ECCENTRICITY":0.00219198,"INCLINATION":98.707,"RA_OF_ASC_NODE":70.7191,"ARG_OF_PERICENTER":102.9977,"MEAN_ANOMALY":257.3655,"EPHEMERIS_TYPE":0,"CLASSIFICATION_TYPE":"U","NORAD_CAT_ID":40136,"ELEMENT_SET_NO":999,"REV_AT_EPOCH":60082,"BSTAR":-4.195914e-5,"MEAN_MOTION_DOT":-1.54e-6,"MEAN_MOTION_DDOT":0},{"OBJECT_NAME":"OBJECT H","OBJECT_ID":"2024-092H","EPOCH":"2026-03-09T22:10:57.432576","MEAN_MOTION":14.31801309,"ECCENTRICITY":0.00131217,"INCLINATION":98.6549,"RA_OF_ASC_NODE":188.1402,"ARG_OF_PERICENTER":138.5744,"MEAN_ANOMALY":221.6437,"EPHEMERIS_TYPE":0,"CLASSIFICATION_TYPE":"U","NORAD_CAT_ID":59780,"ELEMENT_SET_NO":999,"REV_AT_EPOCH":9469,"BSTAR":0.00013575326,"MEAN_MOTION_DOT":3.19e-6,"MEAN_MOTION_DDOT":0}]
